#  1985  4  2  5 57 16.45  37.8825 -122.2420    9.44 1.90 0.1 0.3 0.0    45165
NCCSP       2.810   1.000   P
NCCSP       2.860   0.031   P
NCCMC       2.870   1.000   P
NCCMC       2.910   0.031   P
NCCBW       3.430   1.000   P
NCCBW       3.480   0.031   P
NCCAI       3.430   1.000   P
NCCAI       3.470   0.031   P
NCCBR       3.960   1.000   P
NCCBR       3.990   0.031   P
NCCLC       4.640   1.000   P
NCCLC       4.670   0.031   P
NCJPR       4.140   0.016   P
NCJPR       4.510   1.000   P
NCCDU       5.800   0.125   P
NCCDU       6.550   0.031   P
NCNLH       5.960   0.250   P
NCNLH       6.030   0.031   P
NCCRP       5.870   0.250   P
NCCRP       5.930   0.008   P
NCCRA       6.520   0.125   P
NCCRA       6.560   0.031   P
NCCSH       5.960   0.250   P
NCCSH       6.160   0.008   P
NCNTA       5.610   1.000   P
NCNTA       5.650   0.031   P
NCCPL       7.050   1.000   P
NCCPL       7.150   0.016   P
NCJSA       6.750   1.000   P
NCJSA       6.760   0.031   P
NCCCY       6.990   0.250   P
NCCMO       8.010   1.000   P
NCCMO       8.140   0.004   P
NCCDO       8.180   0.250   P
NCCDO       8.250   0.031   P
NCNSP       7.590   0.250   P
NCNSP       7.660   0.016   P
NCCAC       8.560   0.250   P
NCNGV       8.670   0.250   P
NCJEG       7.960   1.000   P
NCJEG       7.990   0.031   P
NCCVL       9.010   0.125   P
NCCVL       9.320   0.031   P
NCNHM       9.850   0.125   P
NCJHP       8.970   0.750   P
NCJHP       9.050   0.031   P
NCNBR       9.020   0.125   P
NCNLN       8.960   1.000   P
NCNLN       9.000   0.031   P
NCCVA       9.980   0.250   P
NCNOL       8.970   1.000   P
NCNOL       9.000   0.031   P
NCCMJ       9.470   1.000   P
NCCMJ       9.600   0.031   P
NCCBS      10.660   0.125   P
NCJSF       9.680   0.250   P
NCNVE      10.310   0.125   P
NCJLT      10.200   0.062   P
NCJLT      11.140   0.250   P
NCJBG      11.170   0.125   P
NCJBG      11.280   0.004   P
NCCDV      11.110   0.125   P
NCCAL      11.070   0.125   P
NCCAL      11.100   0.004   P
NCCMR      11.500   0.250   P
NCJBM      10.370   0.004   P
NCJBM      11.230   0.250   P
NCJSC      11.820   0.125   P
NCNTY      11.970   0.125   P
NCJSG      12.500   0.250   P
NCJSG      12.620   0.004   P
NCNCF      11.880   0.250   P
NCNCF      12.000   0.031   P
NCJPP      12.370   0.125   P
NCJPP      12.440   0.004   P
NCCST      12.940   0.250   P
NCCST      13.010   0.016   P
NCNTB      12.490   0.750   P
NCNTB      12.570   0.031   P
NCJSM      13.500   0.250   P
NCJPS      13.210   0.125   P
NCJPS      13.510   0.016   P
NCNSH      13.220   0.125   P
NCNSH      13.470   0.016   P
NCCSC      14.270   0.125   P
NCCSC      14.670   0.016   P
NCJBC      14.320   0.125   P
NCJBC      14.570   0.031   P
NCJBL      14.550   0.125   P
NCJST      14.650   0.125   P
NCJST      14.850   0.031   P
NCNWR      14.740   0.125   P
NCNWR      14.890   0.008   P
NCCCO      15.840   1.000   P
NCJAL      15.100   0.125   P
NCCAD      17.200   0.750   P
NCNHB      16.790   0.250   P
NCJBZ      18.390   0.125   P
NCNFR      18.700   0.750   P
#  1985  3 19 17 15 39.62  37.8790 -122.2423    8.50 1.60 0.1 0.4 0.1    44289
NCCSP       2.790   0.750   P
NCCSP       2.870   0.031   P
NCCMC       2.750   1.000   P
NCCMC       2.790   0.031   P
NCCBW       3.380   1.000   P
NCCBW       3.400   0.031   P
NCCAI       3.400   1.000   P
NCCAI       3.420   0.031   P
NCCBR       3.850   1.000   P
NCCBR       3.880   0.031   P
NCCLC       4.530   1.000   P
NCCLC       4.560   0.031   P
NCJPR       4.370   0.125   P
NCJPR       4.490   0.008   P
NCCDU       6.470   1.000   P
NCNLH       5.970   0.125   P
NCNLH       6.010   0.031   P
NCCRP       5.830   0.125   P
NCCSH       6.260   0.750   P
NCCSH       6.280   0.016   P
NCNTA       5.590   0.125   P
NCJMG       6.170   1.000   P
NCJMG       6.210   0.016   P
NCJSA       6.650   1.000   P
NCJSA       6.670   0.031   P
NCCPL       6.930   0.250   P
NCCCY       6.900   0.125   P
NCCMO       7.930   0.125   P
NCNSP       7.620   0.125   P
NCNSP       7.650   0.008   P
NCNGV       8.850   0.125   P
NCJEG       7.870   0.250   P
NCCVL       9.300   0.250   P
NCCVL       9.330   0.031   P
NCJHP       8.940   0.125   P
NCNBR       9.080   0.125   P
NCNLN       8.940   1.000   P
NCNLN       8.990   0.031   P
NCCMJ       9.340   0.125   P
NCNOL       8.940   0.250   P
NCNOL       8.970   0.031   P
NCJBM      11.330   1.000   P
NCJPP      10.830   0.004   P
NCNCF      12.010   0.750   P
NCNTB      12.530   1.000   P
NCJSM      13.370   0.250   P
NCJPS      13.560   0.250   P
NCNDH      16.060   0.016   P
NCBHR      28.220   0.250   P
NCBPI      22.340   0.125   P
#  1985  1 24  7 41 24.78  37.8822 -122.2422    9.72 1.40 0.2 0.6 0.0    38520
NCCSP       2.840  -1.000   P
NCCMC       2.860   0.250   P
NCCBW       3.430   1.000   P
NCCAI       3.420   1.000   P
NCCBR       3.940   1.000   P
NCCLC       4.610   1.000   P
NCJPR       4.490   0.750   P
NCNLH       5.970   0.250   P
NCCSH       6.220   0.250   P
NCNTA       5.590   0.250   P
NCJMG       6.210   0.750   P
NCCPL       7.020   0.750   P
NCJSA       6.720   1.000   P
NCCMO       8.010   0.250   P
NCCDO       8.250   0.250   P
NCJEG       7.940   0.750   P
NCJHP       8.930   0.250   P
NCNLN       8.950  -1.000   P
NCNOL       8.950   0.750   P
NCCMJ       9.480   0.125   P
NCJBM      11.240   0.250   P
NCJSC      11.880   0.125   P
NCJSG      12.590   0.250   P
